[
    {
        "Altitude(m)": 553593.2251259711,
        "Argument of Periapsis(deg)": 0.006622991110713501,
        "Eccentricity": 0.0,
        "Inclination(deg)": 53.0,
        "Latitude(deg)": 16.505929692285292,
        "Longitude(deg)": -168.60387361873254,
        "Mean Anomaly(deg)": 159.18249286757754,
        "RAAN(deg)": 124.99014336852804,
        "Satellite Name": "Starlink Shell 1 559",
        "Satellite Number": 559,
        "Semi-Major Axis(m)": 6931778.249405717,
        "Time(s)": 190
    },
    {
        "Altitude(m)": 553571.051013679,
        "Argument of Periapsis(deg)": 0.0069715695902247375,
        "Eccentricity": 0.0,
        "Inclination(deg)": 53.0,
        "Latitude(deg)": 16.014372051289662,
        "Longitude(deg)": -168.2365396420997,
        "Mean Anomaly(deg)": 159.80932407113428,
        "RAAN(deg)": 124.98962459845055,
        "Satellite Name": "Starlink Shell 1 559",
        "Satellite Number": 559,
        "Semi-Major Axis(m)": 6931778.249405717,
        "Time(s)": 200
    },
    {
        "Altitude(m)": 553551.2567839358,
        "Argument of Periapsis(deg)": 0.007320148069735974,
        "Eccentricity": 0.0,
        "Inclination(deg)": 53.0,
        "Latitude(deg)": 15.522021731910394,
        "Longitude(deg)": -167.87120312576013,
        "Mean Anomaly(deg)": 160.43615527469106,
        "RAAN(deg)": 124.98910582837308,
        "Satellite Name": "Starlink Shell 1 559",
        "Satellite Number": 559,
        "Semi-Major Axis(m)": 6931778.249405717,
        "Time(s)": 210
    },
    {
        "Altitude(m)": 553533.874304964,
        "Argument of Periapsis(deg)": 0.007668726549247212,
        "Eccentricity": 0.0,
        "Inclination(deg)": 53.0,
        "Latitude(deg)": 15.02890803068961,
        "Longitude(deg)": -167.5077935609559,
        "Mean Anomaly(deg)": 161.0629864782477,
        "RAAN(deg)": 124.98858705829561,
        "Satellite Name": "Starlink Shell 1 559",
        "Satellite Number": 559,
        "Semi-Major Axis(m)": 6931778.249405717,
        "Time(s)": 220
    },
    {
        "Altitude(m)": 553518.9343663951,
        "Argument of Periapsis(deg)": 0.00801730502875845,
        "Eccentricity": 0.0,
        "Inclination(deg)": 53.0,
        "Latitude(deg)": 14.53505981963523,
        "Longitude(deg)": -167.14624125516087,
        "Mean Anomaly(deg)": 161.68981768180447,
        "RAAN(deg)": 124.98806828821813,
        "Satellite Name": "Starlink Shell 1 559",
        "Satellite Number": 559,
        "Semi-Major Axis(m)": 6931778.249405717,
        "Time(s)": 230
    },
    {
        "Altitude(m)": 553506.4666613236,
        "Argument of Periapsis(deg)": 0.008365883508269684,
        "Eccentricity": 0.0,
        "Inclination(deg)": 53.0,
        "Latitude(deg)": 14.040505563404034,
        "Longitude(deg)": -166.78647680085052,
        "Mean Anomaly(deg)": 162.3166488853611,
        "RAAN(deg)": 124.98754951814067,
        "Satellite Name": "Starlink Shell 1 559",
        "Satellite Number": 559,
        "Semi-Major Axis(m)": 6931778.249405717,
        "Time(s)": 240
    },
    {
        "Altitude(m)": 553496.4997688947,
        "Argument of Periapsis(deg)": 0.008714461987780921,
        "Eccentricity": 0.0,
        "Inclination(deg)": 53.0,
        "Latitude(deg)": 13.545273336125268,
        "Longitude(deg)": -166.42843205710636,
        "Mean Anomaly(deg)": 162.94348008891788,
        "RAAN(deg)": 124.9870307480632,
        "Satellite Name": "Starlink Shell 1 559",
        "Satellite Number": 559,
        "Semi-Major Axis(m)": 6931778.249405717,
        "Time(s)": 250
    },
    {
        "Altitude(m)": 553489.0611374095,
        "Argument of Periapsis(deg)": 0.009063040467292158,
        "Eccentricity": 0.0,
        "Inclination(deg)": 53.0,
        "Latitude(deg)": 13.049390837874464,
        "Longitude(deg)": -166.07203961833335,
        "Mean Anomaly(deg)": 163.57031129247463,
        "RAAN(deg)": 124.98651197798571,
        "Satellite Name": "Starlink Shell 1 559",
        "Satellite Number": 559,
        "Semi-Major Axis(m)": 6931778.249405717,
        "Time(s)": 260
    },
    {
        "Altitude(m)": 553484.1770680024,
        "Argument of Periapsis(deg)": 0.009411618946803396,
        "Eccentricity": 0.0,
        "Inclination(deg)": 53.0,
        "Latitude(deg)": 12.552885410811164,
        "Longitude(deg)": -165.71723228298214,
        "Mean Anomaly(deg)": 164.1971424960313,
        "RAAN(deg)": 124.98599320790825,
        "Satellite Name": "Starlink Shell 1 559",
        "Satellite Number": 559,
        "Semi-Major Axis(m)": 6931778.249405717,
        "Time(s)": 270
    },
    {
        "Altitude(m)": 553481.8726988634,
        "Argument of Periapsis(deg)": 0.009760197426314633,
        "Eccentricity": 0.0,
        "Inclination(deg)": 53.0,
        "Latitude(deg)": 12.055784054995797,
        "Longitude(deg)": -165.36394403516692,
        "Mean Anomaly(deg)": 164.82397369958804,
        "RAAN(deg)": 124.98547443783077,
        "Satellite Name": "Starlink Shell 1 559",
        "Satellite Number": 559,
        "Semi-Major Axis(m)": 6931778.249405717,
        "Time(s)": 280
    },
    {
        "Altitude(m)": 553482.1719900392,
        "Argument of Periapsis(deg)": 0.01010877590582587,
        "Eccentricity": 0.0,
        "Inclination(deg)": 53.0,
        "Latitude(deg)": 11.558113443894346,
        "Longitude(deg)": -165.01210951344927,
        "Mean Anomaly(deg)": 165.4508049031447,
        "RAAN(deg)": 124.9849556677533,
        "Satellite Name": "Starlink Shell 1 559",
        "Satellite Number": 559,
        "Semi-Major Axis(m)": 6931778.249405717,
        "Time(s)": 290
    },
    {
        "Altitude(m)": 553485.0977087693,
        "Argument of Periapsis(deg)": 0.010457354385337106,
        "Eccentricity": 0.0,
        "Inclination(deg)": 53.0,
        "Latitude(deg)": 11.059899939584131,
        "Longitude(deg)": -164.66166347967246,
        "Mean Anomaly(deg)": 166.07763610670148,
        "RAAN(deg)": 124.98443689767583,
        "Satellite Name": "Starlink Shell 1 559",
        "Satellite Number": 559,
        "Semi-Major Axis(m)": 6931778.249405717,
        "Time(s)": 300
    },
    {
        "Altitude(m)": 553490.6714154689,
        "Argument of Periapsis(deg)": 0.010805932864848343,
        "Eccentricity": 0.0,
        "Inclination(deg)": 53.0,
        "Latitude(deg)": 10.561169607677666,
        "Longitude(deg)": -164.31254180073148,
        "Mean Anomaly(deg)": 166.7044673102582,
        "RAAN(deg)": 124.98391812759837,
        "Satellite Name": "Starlink Shell 1 559",
        "Satellite Number": 559,
        "Semi-Major Axis(m)": 6931778.249405717,
        "Time(s)": 310
    },
    {
        "Altitude(m)": 553498.9134502504,
        "Argument of Periapsis(deg)": 0.01115451134435958,
        "Eccentricity": 0.0,
        "Inclination(deg)": 53.0,
        "Latitude(deg)": 10.061948231970618,
        "Longitude(deg)": -163.96468091754122,
        "Mean Anomaly(deg)": 167.33129851381483,
        "RAAN(deg)": 124.98339935752088,
        "Satellite Name": "Starlink Shell 1 559",
        "Satellite Number": 559,
        "Semi-Major Axis(m)": 6931778.249405717,
        "Time(s)": 320
    },
    {
        "Altitude(m)": 553509.842920064,
        "Argument of Periapsis(deg)": 0.011503089823870818,
        "Eccentricity": 0.0,
        "Inclination(deg)": 53.0,
        "Latitude(deg)": 9.562261328829038,
        "Longitude(deg)": -163.61801731408346,
        "Mean Anomaly(deg)": 167.95812971737155,
        "RAAN(deg)": 124.98288058744342,
        "Satellite Name": "Starlink Shell 1 559",
        "Satellite Number": 559,
        "Semi-Major Axis(m)": 6931778.249405717,
        "Time(s)": 330
    },
    {
        "Altitude(m)": 553523.4776864474,
        "Argument of Periapsis(deg)": 0.011851668303382053,
        "Eccentricity": 0.0,
        "Inclination(deg)": 53.0,
        "Latitude(deg)": 9.062134161332366,
        "Longitude(deg)": -163.2724884994119,
        "Mean Anomaly(deg)": 168.58496092092827,
        "RAAN(deg)": 124.98236181736594,
        "Satellite Name": "Starlink Shell 1 559",
        "Satellite Number": 559,
        "Semi-Major Axis(m)": 6931778.249405717,
        "Time(s)": 340
    },
    {
        "Altitude(m)": 553539.8343538707,
        "Argument of Periapsis(deg)": 0.012200246782893292,
        "Eccentricity": 0.0,
        "Inclination(deg)": 53.0,
        "Latitude(deg)": 8.561591753177114,
        "Longitude(deg)": -162.92803247687294,
        "Mean Anomaly(deg)": 169.21179212448502,
        "RAAN(deg)": 124.98184304728845,
        "Satellite Name": "Starlink Shell 1 559",
        "Satellite Number": 559,
        "Semi-Major Axis(m)": 6931778.249405717,
        "Time(s)": 350
    },
    {
        "Altitude(m)": 553558.9282587309,
        "Argument of Periapsis(deg)": 0.012548825262404526,
        "Eccentricity": 0.0,
        "Inclination(deg)": 53.0,
        "Latitude(deg)": 8.060658902357488,
        "Longitude(deg)": -162.5845872134182,
        "Mean Anomaly(deg)": 169.83862332804173,
        "RAAN(deg)": 124.981324277211,
        "Satellite Name": "Starlink Shell 1 559",
        "Satellite Number": 559,
        "Semi-Major Axis(m)": 6931778.249405717,
        "Time(s)": 360
    },
    {
        "Altitude(m)": 553580.7734589342,
        "Argument of Periapsis(deg)": 0.012897403741915765,
        "Eccentricity": 0.0,
        "Inclination(deg)": 53.0,
        "Latitude(deg)": 7.559360194637712,
        "Longitude(deg)": -162.24209162188458,
        "Mean Anomaly(deg)": 170.46545453159843,
        "RAAN(deg)": 124.98080550713354,
        "Satellite Name": "Starlink Shell 1 559",
        "Satellite Number": 559,
        "Semi-Major Axis(m)": 6931778.249405717,
        "Time(s)": 370
    }
]